ONEWEB-0616             
1 55157U 23004T   24020.94166369  .00000098  00000+0  21947-3 0  9996
2 55157  87.9220 180.4972 0002656 115.0012 245.1395 13.17650346 52049
ONEWEB-0617             
1 55158U 23004U   24020.89092608 -.00000474  00000+0 -13736-2 0  9991
2 55158  87.8962 195.6634 0001002  81.1212 279.0030 13.11416533 50743
ONEWEB-0618             
1 55159U 23004V   24020.85077087  .00001426  00000+0  58098-3 0  9999
2 55159  86.9132 145.9209 0014687  51.8466 308.4047 14.26761030 54197
ONEWEB-0619             
1 55160U 23004W   24020.89734617 -.00000108  00000+0 -31113-3 0  9991
2 55160  87.9221 180.4816 0001587 122.8722 237.2563 13.17648717 51932
ONEWEB-0621             
1 55162U 23004Y   24020.91202653 -.00000084  00000+0 -27141-3 0  9995
2 55162  87.8964 195.6389 0001221 111.9208 248.2049 13.11419551 50692
ONEWEB-0622             
1 55163U 23004Z   24020.91854257  .00000329  00000+0  89144-3 0  9990
2 55163  87.8966 195.6518 0000667  55.8313 304.2878 13.11414217 50681
ONEWEB-0623             
1 55164U 23004AA  24020.89259985 -.00000200  00000+0 -54837-3 0  9996
2 55164  87.9222 180.5359 0000579  96.9191 263.2007 13.17648901 51927
